NORAD_CAT_ID,OBJECT_NAME,OBJECT_TYPE,EPOCH,MEAN_MOTION,ECCENTRICITY,INCLINATION,RA_OF_ASC_NODE,ARG_OF_PERICENTER,MEAN_ANOMALY,BSTAR,MEAN_MOTION_DOT,MEAN_MOTION_DDOT,TLE_LINE0,TLE_LINE1,TLE_LINE2,SEMIMAJOR_AXIS,PERIOD,APOGEE,PERIGEE,DECAYED
56462.0,STARLINK-6045,PAYLOAD,2024-01-11 04:04:56,14.98330479,0.0002495,69.9999,292.408,259.4151,100.6728,3.6237e-05,3.39e-06,0.0,0 STARLINK-6045,1 56462U 23064Q   24011.17009664  .00000339  00000-0  36237-4 0  9999,2 56462  69.9999 292.4080 0002495 259.4151 100.6728 14.98330479 38483,6950.191,96.107,573.79,570.322,0.0
56462.0,STARLINK-6045,PAYLOAD,2024-01-11 20:06:17,14.98322253,0.0002719,70.0005,290.7271,262.1287,97.9564,-7.3545e-05,-9.7e-06,0.0,0 STARLINK-6045,1 56462U 23064Q   24011.83770569 -.00000970  00000-0 -73545-4 0  9997,2 56462  70.0005 290.7271 0002719 262.1287  97.9564 14.98322253 38585,6950.217,96.107,573.972,570.192,0.0
56462.0,STARLINK-6045,PAYLOAD,2024-01-11 21:42:25,14.98322233,0.0002715,70.0005,290.5582,261.7962,98.2889,-7.3902e-05,-9.74e-06,0.0,0 STARLINK-6045,1 56462U 23064Q   24011.90446592 -.00000974  00000-0 -73902-4 0  9992,2 56462  70.0005 290.5582 0002715 261.7962  98.2889 14.98322233 38233,6950.217,96.107,573.969,570.195,0.0
56462.0,STARLINK-6045,PAYLOAD,2024-01-12 04:06:57,14.98325288,0.0002653,70.0001,289.8842,262.6856,97.4001,-3.7648e-05,-5.42e-06,0.0,0 STARLINK-6045,1 56462U 23064Q   24012.17150398 -.00000542  00000-0 -37648-4 0  9996,2 56462  70.0001 289.8842 0002653 262.6856  97.4001 14.98325288 38276,6950.207,96.107,573.916,570.229,0.0
56462.0,STARLINK-6045,PAYLOAD,2024-01-12 20:08:18,14.98326913,0.0002708,70.0001,288.2007,262.7752,97.31,2.0218e-05,1.48e-06,0.0,0 STARLINK-6045,1 56462U 23064Q   24012.83910227  .00000148  00000-0  20218-4 0  9999,2 56462  70.0001 288.2007 0002708 262.7752  97.3100 14.98326913 38735,6950.202,96.107,573.95,570.185,0.0
56462.0,STARLINK-6045,PAYLOAD,2024-01-12 21:44:26,14.98326994,0.0002708,70.0001,288.0324,262.8752,97.2099,1.8982e-05,1.34e-06,0.0,0 STARLINK-6045,1 56462U 23064Q   24012.90586238  .00000134  00000-0  18982-4 0  9998,2 56462  70.0001 288.0324 0002708 262.8752  97.2099 14.98326994 38382,6950.202,96.107,573.949,570.185,0.0
56462.0,STARLINK-6045,PAYLOAD,2024-01-13 04:08:58,14.98332746,0.0002746,69.9996,287.3578,266.8318,93.2527,7.5049e-05,8.03e-06,0.0,0 STARLINK-6045,1 56462U 23064Q   24013.17289744  .00000803  00000-0  75049-4 0  9990,2 56462  69.9996 287.3578 0002746 266.8318  93.2527 14.98332746 38787,6950.184,96.107,573.958,570.141,0.0
56462.0,STARLINK-6045,PAYLOAD,2024-01-14 04:10:59,14.98333578,0.0002703,69.9999,284.8327,270.1193,89.9656,0.00012302,1.375e-05,0.0,0 STARLINK-6045,1 56462U 23064Q   24014.17429566  .00001375  00000-0  12302-3 0  9996,2 56462  69.9999 284.8327 0002703 270.1193  89.9656 14.98333578 38932,6950.182,96.107,573.925,570.168,0.0
56462.0,STARLINK-6045,PAYLOAD,2024-01-14 20:12:20,14.98329103,0.0002377,70.0005,283.1492,265.8249,94.2638,4.0048e-05,3.85e-06,0.0,0 STARLINK-6045,1 56462U 23064Q   24014.84189966  .00000385  00000-0  40048-4 0  9996,2 56462  70.0005 283.1492 0002377 265.8249  94.2638 14.98329103 39038,6950.196,96.107,573.713,570.409,0.0
56462.0,STARLINK-6045,PAYLOAD,2024-01-14 21:48:28,14.98328819,0.000249,70.0006,282.9808,270.4844,89.6029,4.5609e-05,4.51e-06,0.0,0 STARLINK-6045,1 56462U 23064Q   24014.90865975  .00000451  00000-0  45609-4 0  9996,2 56462  70.0006 282.9808 0002490 270.4844  89.6029 14.98328819 38681,6950.197,96.107,573.792,570.331,0.0
56462.0,STARLINK-6045,PAYLOAD,2024-01-15 04:12:59,14.9833519,0.0002368,70.0006,282.3091,250.2858,109.8045,7.1942e-05,7.66e-06,0.0,0 STARLINK-6045,1 56462U 23064Q   24015.17569339  .00000766  00000-0  71942-4 0  9999,2 56462  70.0006 282.3091 0002368 250.2858 109.8045 14.98335190 39082,6950.177,96.107,573.688,570.396,0.0
56462.0,STARLINK-6045,PAYLOAD,2024-01-15 18:38:13,14.98325557,0.0002189,70.002,280.7942,241.4364,118.6575,-2.4163e-06,-1.22e-06,0.0,0 STARLINK-6045,1 56462U 23064Q   24015.77654064 -.00000122  00000-0 -24163-5 0  9997,2 56462  70.0020 280.7942 0002189 241.4364 118.6575 14.98325557 39172,6950.207,96.107,573.593,570.55,0.0
56462.0,STARLINK-6045,PAYLOAD,2024-01-15 20:14:21,14.98325774,0.0002295,70.0015,280.6265,232.2953,127.7998,-4.925e-05,-6.8e-06,0.0,0 STARLINK-6045,1 56462U 23064Q   24015.84330194 -.00000680  00000-0 -49250-4 0  9992,2 56462  70.0015 280.6265 0002295 232.2953 127.7998 14.98325774 38825,6950.206,96.107,573.666,570.476,0.0
56462.0,STARLINK-6045,PAYLOAD,2024-01-16 04:15:02,14.98319051,0.0002412,70.0012,279.7848,234.0372,126.0564,-0.00011123,-1.419e-05,0.0,0 STARLINK-6045,1 56462U 23064Q   24016.17710891 -.00001419  00000-0 -11123-3 0  9993,2 56462  70.0012 279.7848 0002412 234.0372 126.0564 14.98319051 39232,6950.227,96.108,573.768,570.415,0.0
56462.0,STARLINK-6045,PAYLOAD,2024-01-16 20:16:22,14.98331069,0.0002801,69.9997,278.1001,255.66,104.4248,-3.1634e-05,-4.7e-06,0.0,0 STARLINK-6045,1 56462U 23064Q   24016.84469940 -.00000470  00000-0 -31634-4 0  9999,2 56462  69.9997 278.1001 0002801 255.6600 104.4248 14.98331069 39333,6950.19,96.107,574.001,570.108,0.0
56462.0,STARLINK-6045,PAYLOAD,2024-01-16 21:52:30,14.98331219,0.0002788,69.9997,277.9318,254.924,105.1611,-2.3284e-05,-3.71e-06,0.0,0 STARLINK-6045,1 56462U 23064Q   24016.91145902 -.00000371  00000-0 -23284-4 0  9998,2 56462  69.9997 277.9318 0002788 254.9240 105.1611 14.98331219 38986,6950.189,96.107,573.992,570.116,0.0
56462.0,STARLINK-6045,PAYLOAD,2024-01-17 02:40:53,14.9832805,0.0002923,69.9998,277.4272,257.7946,102.2886,0.00017597,2.007e-05,0.0,0 STARLINK-6045,1 56462U 23064Q   24017.11173527  .00002007  00000-0  17597-3 0  9990,2 56462  69.9998 277.4272 0002923 257.7946 102.2886 14.98328050 39012,6950.199,96.107,574.095,570.032,0.0
56462.0,STARLINK-6045,PAYLOAD,2024-01-17 20:18:23,14.98323826,0.0002632,70.0002,275.5765,248.777,111.3108,6.4216e-05,6.73e-06,0.0,0 STARLINK-6045,1 56462U 23064Q   24017.84610072  .00000673  00000-0  64216-4 0  9999,2 56462  70.0002 275.5765 0002632 248.7770 111.3108 14.98323826 39484,6950.212,96.107,573.906,570.248,0.0
56462.0,STARLINK-6045,PAYLOAD,2024-01-17 21:54:31,14.98323865,0.0002631,70.0002,275.4083,248.7754,111.3125,6.2934e-05,6.58e-06,0.0,0 STARLINK-6045,1 56462U 23064Q   24017.91286094  .00000658  00000-0  62934-4 0  9998,2 56462  70.0002 275.4083 0002631 248.7754 111.3125 14.98323865 39131,6950.212,96.107,573.905,570.248,0.0
56462.0,STARLINK-6045,PAYLOAD,2024-01-18 02:42:55,14.98325166,0.0002696,69.9996,274.9017,260.095,99.9905,6.5469e-05,6.88e-06,0.0,0 STARLINK-6045,1 56462U 23064Q   24018.11314103  .00000688  00000-0  65469-4 0  9993,2 56462  69.9996 274.9017 0002696 260.0950  99.9905 14.98325166 39163,6950.208,96.107,573.947,570.199,0.0
56462.0,STARLINK-6045,PAYLOAD,2024-01-18 20:20:23,14.98332979,0.0002719,69.9994,273.0498,261.5446,98.5405,-3.6791e-05,-5.32e-06,0.0,0 STARLINK-6045,1 56462U 23064Q   24018.84749922 -.00000532  00000-0 -36791-4 0  9990,2 56462  69.9994 273.0498 0002719 261.5446  98.5405 14.98332979 39638,6950.184,96.107,573.938,570.159,0.0
56462.0,STARLINK-6045,PAYLOAD,2024-01-18 21:56:31,14.98332876,0.0002721,69.9994,272.8815,261.5798,98.5052,-3.6775e-05,-5.32e-06,0.0,0 STARLINK-6045,1 56462U 23064Q   24018.91425914 -.00000532  00000-0 -36775-4 0  9992,2 56462  69.9994 272.8815 0002721 261.5798  98.5052 14.98332876 39286,6950.184,96.107,573.94,570.158,0.0
56462.0,STARLINK-6045,PAYLOAD,2024-01-19 02:44:55,14.98335531,0.0002698,69.9996,272.3775,261.7807,98.3046,-4.7261e-06,-1.49e-06,0.0,0 STARLINK-6045,1 56462U 23064Q   24019.11453609 -.00000149  00000-0 -47261-5 0  9994,2 56462  69.9996 272.3775 0002698 261.7807  98.3046 14.98335531 39310,6950.176,96.107,573.916,570.166,0.0
56462.0,STARLINK-6045,PAYLOAD,2024-01-19 20:22:24,14.9832995,0.000273,69.9995,270.5256,263.0606,97.0242,3.6776e-06,-4.9e-07,0.0,0 STARLINK-6045,1 56462U 23064Q   24019.84889827 -.00000049  00000-0  36776-5 0  9996,2 56462  69.9995 270.5256 0002730 263.0606  97.0242 14.98329950 39426,6950.193,96.107,573.955,570.161,0.0
56462.0,STARLINK-6045,PAYLOAD,2024-01-20 02:46:56,14.98332022,0.0002703,69.9996,269.8525,263.0262,97.0589,2.779e-05,2.39e-06,0.0,0 STARLINK-6045,1 56462U 23064Q   24020.11593606  .00000239  00000-0  27790-4 0  9990,2 56462  69.9996 269.8525 0002703 263.0262  97.0589 14.98332022 39827,6950.187,96.107,573.93,570.173,0.0
56462.0,STARLINK-6045,PAYLOAD,2024-01-20 22:00:33,14.98329197,0.0002573,70.0,267.8324,261.861,98.2257,-2.2709e-05,-3.64e-06,0.0,0 STARLINK-6045,1 56462U 23064Q   24020.91705882 -.00000364  00000-0 -22709-4 0  9995,2 56462  70.0000 267.8324 0002573 261.8610  98.2257 14.98329197 39586,6950.195,96.107,573.849,570.272,0.0
56462.0,STARLINK-6045,PAYLOAD,2024-01-21 02:48:57,14.98330266,0.0002566,69.9999,267.3273,262.7394,97.3473,-9.3439e-06,-2.04e-06,0.0,0 STARLINK-6045,1 56462U 23064Q   24021.11733781 -.00000204  00000-0 -93439-5 0  9999,2 56462  69.9999 267.3273 0002566 262.7394  97.3473 14.98330266 39971,6950.192,96.107,573.84,570.274,0.0
56462.0,STARLINK-6045,PAYLOAD,2024-01-21 22:02:34,14.98331966,0.0002612,69.9998,265.3073,261.9682,98.1181,1.0617e-05,3.4e-07,0.0,0 STARLINK-6045,1 56462U 23064Q   24021.91845481  .00000034  00000-0  10617-4 0  9993,2 56462  69.9998 265.3073 0002612 261.9682  98.1181 14.98331966 39736,6950.187,96.107,573.867,570.236,0.0
56462.0,STARLINK-6045,PAYLOAD,2024-01-22 01:14:50,14.9833278,0.0002603,69.9998,264.9707,261.8915,98.1949,1.9773e-05,1.43e-06,0.0,0 STARLINK-6045,1 56462U 23064Q   24022.05197382  .00000143  00000-0  19773-4 0  9992,2 56462  69.9998 264.9707 0002603 261.8915  98.1949 14.98332780 39752,6950.184,96.107,573.858,570.24,0.0
56462.0,STARLINK-6045,PAYLOAD,2024-01-22 18:52:19,14.98327078,0.0002574,69.9997,263.119,259.0017,101.0853,-8.9254e-06,-1.99e-06,0.0,0 STARLINK-6045,1 56462U 23064Q   24022.78633777 -.00000199  00000-0 -89254-5 0  9990,2 56462  69.9997 263.1190 0002574 259.0017 101.0853 14.98327078 40223,6950.202,96.107,573.856,570.278,0.0
